NORAD_CAT_ID,OBJECT_NAME,OBJECT_TYPE,EPOCH,MEAN_MOTION,ECCENTRICITY,INCLINATION,RA_OF_ASC_NODE,ARG_OF_PERICENTER,MEAN_ANOMALY,BSTAR,MEAN_MOTION_DOT,MEAN_MOTION_DDOT,TLE_LINE0,TLE_LINE1,TLE_LINE2,SEMIMAJOR_AXIS,PERIOD,APOGEE,PERIGEE,DECAYED
53713.0,STARLINK-4698,PAYLOAD,2024-06-10 21:16:53,15.08837832,0.0001299,53.2164,232.4569,86.4012,273.7128,-2.093e-05,-6.21e-06,0.0,0 STARLINK-4698,1 53713U 22107P   24162.88672982 -.00000621  00000-0 -20930-4 0  9995,2 53713  53.2164 232.4569 0001299  86.4012 273.7128 15.08837832 97837,6917.887,95.438,540.651,538.853,0.0
53713.0,STARLINK-4698,PAYLOAD,2024-06-11 11:35:21,15.08831799,0.0001327,53.2164,229.7805,88.2657,271.8487,7.9373e-05,9.75e-06,0.0,0 STARLINK-4698,1 53713U 22107P   24163.48289183  .00000975  00000-0  79373-4 0  9994,2 53713  53.2164 229.7805 0001327  88.2657 271.8487 15.08831799 98368,6917.905,95.438,540.688,538.852,0.0
53713.0,STARLINK-4698,PAYLOAD,2024-06-11 21:07:41,15.08824367,0.0001327,53.2162,227.9966,89.5479,270.5665,0.00014489,2.018e-05,0.0,0 STARLINK-4698,1 53713U 22107P   24163.88033644  .00002018  00000-0  14489-3 0  9993,2 53713  53.2162 227.9966 0001327  89.5479 270.5665 15.08824367 97984,6917.928,95.439,540.711,538.875,0.0
53713.0,STARLINK-4698,PAYLOAD,2024-06-12 11:26:09,15.08830611,0.0001337,53.2164,225.3206,87.367,272.7475,-3.2309e-05,-8.02e-06,0.0,0 STARLINK-4698,1 53713U 22107P   24164.47650058 -.00000802  00000-0 -32309-4 0  9996,2 53713  53.2164 225.3206 0001337  87.3670 272.7475 15.08830611 98517,6917.909,95.438,540.699,538.849,0.0
53713.0,STARLINK-4698,PAYLOAD,2024-06-13 11:16:55,15.08841941,0.0001457,53.2178,220.8603,89.3976,270.7183,5.9139e-05,6.53e-06,0.0,0 STARLINK-4698,1 53713U 22107P   24165.47009124  .00000653  00000-0  59139-4 0  9991,2 53713  53.2178 220.8603 0001457  89.3976 270.7183 15.08841941 98227,6917.874,95.437,540.747,538.732,0.0
53713.0,STARLINK-4698,PAYLOAD,2024-06-14 12:43:06,15.08842069,0.0001381,53.2166,216.1004,83.7788,276.3361,4.5457e-05,4.36e-06,0.0,0 STARLINK-4698,1 53713U 22107P   24166.52993325  .00000436  00000-0  45457-4 0  9990,2 53713  53.2166 216.1004 0001381  83.7788 276.3361 15.08842069 98820,6917.874,95.437,540.694,538.784,0.0
53713.0,STARLINK-4698,PAYLOAD,2024-06-14 20:40:01,15.08842837,0.0001413,53.2168,214.6142,82.949,277.1663,1.8175e-05,1e-08,0.0,0 STARLINK-4698,1 53713U 22107P   24166.86113311  .00000001  00000-0  18175-4 0  9991,2 53713  53.2168 214.6142 0001413  82.9490 277.1663 15.08842837 98877,6917.872,95.437,540.714,538.759,0.0
53713.0,STARLINK-4698,PAYLOAD,2024-06-15 09:23:07,15.08838482,0.0001418,53.2168,212.2357,82.8998,277.2155,5.4303e-06,-2.02e-06,0.0,0 STARLINK-4698,1 53713U 22107P   24167.39105525 -.00000202  00000-0  54303-5 0  9996,2 53713  53.2168 212.2357 0001418  82.8998 277.2155 15.08838482 98953,6917.885,95.438,540.731,538.769,0.0
53713.0,STARLINK-4698,PAYLOAD,2024-06-15 20:30:49,15.08837265,0.0001405,53.2169,210.1538,83.392,276.7232,1.7986e-05,-2e-08,0.0,0 STARLINK-4698,1 53713U 22107P   24167.85473559 -.00000002  00000-0  17986-4 0  9995,2 53713  53.2169 210.1538 0001405  83.3920 276.7232 15.08837265 99026,6917.889,95.438,540.726,538.782,0.0
53713.0,STARLINK-4698,PAYLOAD,2024-06-16 09:13:53,15.08840492,0.0001376,53.2165,207.7744,83.3414,276.7735,2.589e-05,1.24e-06,0.0,0 STARLINK-4698,1 53713U 22107P   24168.38465276  .00000124  00000-0  25890-4 0  9998,2 53713  53.2165 207.7744 0001376  83.3414 276.7735 15.08840492 99101,6917.879,95.438,540.696,538.792,0.0
53713.0,STARLINK-4698,PAYLOAD,2024-06-17 12:15:27,15.08836359,0.0001308,53.2161,202.718,83.5754,276.5387,9.7705e-06,-1.32e-06,0.0,0 STARLINK-4698,1 53713U 22107P   24169.51073666 -.00000132  00000-0  97705-5 0  9997,2 53713  53.2161 202.7180 0001308  83.5754 276.5387 15.08836359 99276,6917.892,95.438,540.661,538.852,0.0
53713.0,STARLINK-4698,PAYLOAD,2024-06-18 08:55:28,15.08836467,0.0001306,53.2159,198.8524,83.0733,277.0407,-1.8703e-05,-5.86e-06,0.0,0 STARLINK-4698,1 53713U 22107P   24170.37185832 -.00000586  00000-0 -18703-4 0  9996,2 53713  53.2159 198.8524 0001306  83.0733 277.0407 15.08836467 99404,6917.891,95.438,540.66,538.853,0.0
53713.0,STARLINK-4698,PAYLOAD,2024-06-18 18:27:47,15.08833571,0.0001332,53.2158,197.0684,83.2735,276.8409,1.4729e-05,-5.4e-07,0.0,0 STARLINK-4698,1 53713U 22107P   24170.76930003 -.00000054  00000-0  14729-4 0  9990,2 53713  53.2158 197.0684 0001332  83.2735 276.8409 15.08833571 99024,6917.9,95.438,540.687,538.844,0.0
53713.0,STARLINK-4698,PAYLOAD,2024-06-19 10:21:38,15.08836946,0.0001335,53.2165,194.0956,84.0999,276.0145,-5.0746e-07,-2.96e-06,0.0,0 STARLINK-4698,1 53713U 22107P   24171.43170074 -.00000296  00000-0 -50746-6 0  9999,2 53713  53.2165 194.0956 0001335  84.0999 276.0145 15.08836946 99562,6917.89,95.438,540.678,538.831,0.0
53713.0,STARLINK-4698,PAYLOAD,2024-06-19 18:18:34,15.08837375,0.0001336,53.2165,192.6088,83.6549,276.4595,4.8121e-06,-2.11e-06,0.0,0 STARLINK-4698,1 53713U 22107P   24171.76290069 -.00000211  00000-0  48121-5 0  9991,2 53713  53.2165 192.6088 0001336  83.6549 276.4595 15.08837375 99615,6917.888,95.438,540.678,538.829,0.0
53713.0,STARLINK-4698,PAYLOAD,2024-06-20 05:26:16,15.08834596,0.0001333,53.2165,190.5273,84.8102,275.3042,1.6121e-05,-3.1e-07,0.0,0 STARLINK-4698,1 53713U 22107P   24172.22658275 -.00000031  00000-0  16121-4 0  9994,2 53713  53.2165 190.5273 0001333  84.8102 275.3042 15.08834596 99249,6917.897,95.438,540.684,538.84,0.0
53713.0,STARLINK-4698,PAYLOAD,2024-06-20 10:12:26,15.08834944,0.0001337,53.2165,189.6352,84.1261,275.9884,1.7767e-05,-5e-08,0.0,0 STARLINK-4698,1 53713U 22107P   24172.42530302 -.00000005  00000-0  17767-4 0  9994,2 53713  53.2165 189.6352 0001337  84.1261 275.9884 15.08834944 99718,6917.896,95.438,540.686,538.836,0.0
53713.0,STARLINK-4698,PAYLOAD,2024-06-21 10:03:13,15.08838594,0.0001318,53.2164,185.1746,87.0934,273.0209,2.8335e-05,1.63e-06,0.0,0 STARLINK-4698,1 53713U 22107P   24173.41890227  .00000163  00000-0  28335-4 0  9996,2 53713  53.2164 185.1746 0001318  87.0934 273.0209 15.08838594 99426,6917.885,95.438,540.661,538.838,0.0
53713.0,STARLINK-4698,PAYLOAD,2024-06-22 08:18:37,15.08838814,0.0001286,53.2164,181.011,87.0702,273.0437,2.296e-05,7.8e-07,0.0,0 STARLINK-4698,1 53713U 22107P   24174.34626227  .00000078  00000-0  22960-4 0  9999,2 53713  53.2164 181.0110 0001286  87.0702 273.0437 15.08838814100008,6917.884,95.438,540.639,538.859,0.0
53713.0,STARLINK-4698,PAYLOAD,2024-06-23 04:58:37,15.08839341,0.000131,53.2167,177.1444,85.3623,274.7519,1.8046e-05,-1e-08,0.0,0 STARLINK-4698,1 53713U 22107P   24175.20738202 -.00000001  00000-0  18046-4 0  9999,2 53713  53.2167 177.1444 0001310  85.3623 274.7519 15.08839341 99695,6917.882,95.438,540.654,538.841,0.0
53713.0,STARLINK-4698,PAYLOAD,2024-06-23 09:44:47,15.0884111,0.0001316,53.2166,176.2533,83.8872,276.227,1.2232e-05,-9.3e-07,0.0,0 STARLINK-4698,1 53713U 22107P   24175.40610114 -.00000093  00000-0  12232-4 0  9994,2 53713  53.2166 176.2533 0001316  83.8872 276.2270 15.08841110100161,6917.877,95.437,540.652,538.832,0.0
53713.0,STARLINK-4698,PAYLOAD,2024-06-24 09:35:34,15.08836767,0.0001236,53.2162,171.794,92.8979,267.2154,-9.1078e-06,-4.33e-06,0.0,0 STARLINK-4698,1 53713U 22107P   24176.39970319 -.00000433  00000-0 -91078-5 0  9994,2 53713  53.2162 171.7940 0001236  92.8979 267.2154 15.08836767 99876,6917.89,95.438,540.61,538.9,0.0
53713.0,STARLINK-4698,PAYLOAD,2024-06-25 04:40:12,15.0883699,0.0001281,53.2166,168.2254,92.9784,267.1354,-2.2024e-05,-6.38e-06,0.0,0 STARLINK-4698,1 53713U 22107P   24177.19458490 -.00000638  00000-0 -22024-4 0  9995,2 53713  53.2166 168.2254 0001281  92.9784 267.1354 15.08836990100438,6917.89,95.438,540.641,538.868,0.0
53713.0,STARLINK-4698,PAYLOAD,2024-06-26 04:30:59,15.0883566,0.000132,53.2162,163.7646,96.8793,263.2349,3.3653e-05,2.48e-06,0.0,0 STARLINK-4698,1 53713U 22107P   24178.18818421  .00000248  00000-0  33653-4 0  9994,2 53713  53.2162 163.7646 0001320  96.8793 263.2349 15.08835660100148,6917.894,95.438,540.672,538.845,0.0
53713.0,STARLINK-4698,PAYLOAD,2024-06-26 06:06:22,15.08835505,0.0001299,53.216,163.4673,94.7096,265.4044,3.0914e-05,2.04e-06,0.0,0 STARLINK-4698,1 53713U 22107P   24178.25442464  .00000204  00000-0  30914-4 0  9991,2 53713  53.2160 163.4673 0001299  94.7096 265.4044 15.08835505100594,6917.894,95.438,540.658,538.86,0.0
53713.0,STARLINK-4698,PAYLOAD,2024-06-27 05:57:09,15.08835049,0.0001261,53.2155,159.0067,87.7136,272.4001,-1.4058e-05,-5.12e-06,0.0,0 STARLINK-4698,1 53713U 22107P   24179.24803010 -.00000512  00000-0 -14058-4 0  9994,2 53713  53.2155 159.0067 0001261  87.7136 272.4001 15.08835049100305,6917.896,95.438,540.633,538.888,0.0
53713.0,STARLINK-4698,PAYLOAD,2024-06-27 15:29:28,15.08833436,0.0001215,53.2153,157.2227,91.4812,268.6319,-1.588e-05,-5.41e-06,0.0,0 STARLINK-4698,1 53713U 22107P   24179.64547227 -.00000541  00000-0 -15880-4 0  9999,2 53713  53.2153 157.2227 0001215  91.4812 268.6319 15.08833436100805,6917.9,95.438,540.606,538.925,0.0
53713.0,STARLINK-4698,PAYLOAD,2024-06-28 05:47:56,15.08839959,0.0001184,53.2144,154.5457,96.0733,264.0394,4.4776e-05,4.25e-06,0.0,0 STARLINK-4698,1 53713U 22107P   24180.24162697  .00000425  00000-0  44776-4 0  9996,2 53713  53.2144 154.5457 0001184  96.0733 264.0394 15.08839959100458,6917.881,95.438,540.565,538.926,0.0
53713.0,STARLINK-4698,PAYLOAD,2024-06-28 15:20:14,15.08848577,0.0001154,53.2148,152.7588,111.1442,248.9674,5.0861e-05,5.22e-06,0.0,0 STARLINK-4698,1 53713U 22107P   24180.63905949  .00000522  00000-0  50861-4 0  9994,2 53713  53.2148 152.7588 0001154 111.1442 248.9674 15.08848577100515,6917.854,95.437,540.517,538.921,0.0
53713.0,STARLINK-4698,PAYLOAD,2024-06-29 04:03:20,15.08838741,0.0001195,53.2153,150.3823,90.7032,269.4097,4.8122e-05,4.78e-06,0.0,0 STARLINK-4698,1 53713U 22107P   24181.16898648  .00000478  00000-0  48122-4 0  9997,2 53713  53.2153 150.3823 0001195  90.7032 269.4097 15.08838741100596,6917.884,95.438,540.576,538.923,0.0
